{
  "norad_id": 63385,
  "name": "STARLINK-33616",
  "history": [
    {
      "epoch": "2026-03-28T22:03:28.586304",
      "apogee_km": 475.67840070624516,
      "perigee_km": 474.70372038947426,
      "latitude_deg": -21.27544318511795,
      "longitude_deg": -113.26823744014837,
      "semi_major_axis_km": 6853.328060547859,
      "eccentricity": 7.111e-05,
      "inclination_deg": 53.1597,
      "raan_deg": 333.7923,
      "arg_perigee_deg": 120.106,
      "mean_anomaly_deg": 240.0011,
      "mean_motion_rev_day": 15.30208041
    },
    {
      "epoch": "2026-03-29T01:11:35.224800",
      "apogee_km": 475.8347246319272,
      "perigee_km": 474.6614251071087,
      "latitude_deg": 52.85214764012889,
      "longitude_deg": -100.7275279997848,
      "semi_major_axis_km": 6853.385074869518,
      "eccentricity": 8.56e-05,
      "inclination_deg": 53.1594,
      "raan_deg": 333.1854,
      "arg_perigee_deg": 104.9794,
      "mean_anomaly_deg": 255.1302,
      "mean_motion_rev_day": 15.30188946
    }
  ]
}